ONEWEB-0531             
1 54146U 22138AK  25038.91944752  .00000053  00000+0  99411-4 0  9990
2 54146  87.9283  12.7778 0002397  62.2826 297.8550 13.20771647114930
ONEWEB-0535             
1 54147U 22138AL  25038.90543632  .00005306  00000+0  13214-1 0  9992
2 54147  87.9120  43.2005 0001733  71.1862 288.9459 13.19717081112516
ONEWEB-0536             
1 54148U 22138AM  25038.90681797  .00000016  00000+0  76332-5 0  9995
2 54148  87.9282  12.8269 0002545  62.9728 297.1665 13.20770576114053
ONEWEB-0527             
1 54642U 22166A   25038.87385009  .00000042  00000+0  70052-4 0  9999
2 54642  87.9346 342.5078 0001941  81.8619 278.2735 13.21826406106236
ONEWEB-0528             
1 54643U 22166B   25038.88016157  .00000114  00000+0  24434-3 0  9998
2 54643  87.9347 342.5015 0001929  82.9910 277.1444 13.21826426106249
ONEWEB-0539             
1 54644U 22166C   25038.84070471  .00000060  00000+0  11390-3 0  9991
2 54644  87.9329 342.5148 0001700  81.9114 278.2213 13.21822751106231
ONEWEB-0540             
1 54645U 22166D   25038.84703395  .00000045  00000+0  77801-4 0  9993
2 54645  87.9345 342.5237 0001599  83.3215 276.8101 13.21830143106226
ONEWEB-0542             
1 54646U 22166E   25038.92589182  .00000015  00000+0  37013-5 0  9998
2 54646  87.9327 342.4963 0001455  74.1057 286.0237 13.21826175106240
