<?xml version="1.0" encoding="UTF-8"?>
<ndm xmlns:xsi="http://www.w3.org/2001/XMLSchema-instance" xsi:noNamespaceSchemaLocation="https://sanaregistry.org/r/ndmxml_unqualified/ndmxml-2.0.0-master-2.0.xsd">
<omm id="CCSDS_OMM_VERS" version="2.0">
<header><CREATION_DATE/><ORIGINATOR/></header><body><segment><metadata><OBJECT_NAME>ONEWEB-0531</OBJECT_NAME><OBJECT_ID>2022-138AK</OBJECT_ID><CENTER_NAME>EARTH</CENTER_NAME><REF_FRAME>TEME</REF_FRAME><TIME_SYSTEM>UTC</TIME_SYSTEM><MEAN_ELEMENT_THEORY>SGP4</MEAN_ELEMENT_THEORY></metadata><data><meanElements><EPOCH>2025-02-07T22:04:00.265728</EPOCH><MEAN_MOTION>13.20771647</MEAN_MOTION><ECCENTRICITY>.0002397</ECCENTRICITY><INCLINATION>87.9283</INCLINATION><RA_OF_ASC_NODE>12.7778</RA_OF_ASC_NODE><ARG_OF_PERICENTER>62.2826</ARG_OF_PERICENTER><MEAN_ANOMALY>297.8550</MEAN_ANOMALY></meanElements><tleParameters><EPHEMERIS_TYPE>0</EPHEMERIS_TYPE><CLASSIFICATION_TYPE>U</CLASSIFICATION_TYPE><NORAD_CAT_ID>54146</NORAD_CAT_ID><ELEMENT_SET_NO>999</ELEMENT_SET_NO><REV_AT_EPOCH>11493</REV_AT_EPOCH><BSTAR>.99411E-4</BSTAR><MEAN_MOTION_DOT>.53E-6</MEAN_MOTION_DOT><MEAN_MOTION_DDOT>0</MEAN_MOTION_DDOT></tleParameters></data></segment></body></omm>
<omm id="CCSDS_OMM_VERS" version="2.0">
<header><CREATION_DATE/><ORIGINATOR/></header><body><segment><metadata><OBJECT_NAME>ONEWEB-0535</OBJECT_NAME><OBJECT_ID>2022-138AL</OBJECT_ID><CENTER_NAME>EARTH</CENTER_NAME><REF_FRAME>TEME</REF_FRAME><TIME_SYSTEM>UTC</TIME_SYSTEM><MEAN_ELEMENT_THEORY>SGP4</MEAN_ELEMENT_THEORY></metadata><data><meanElements><EPOCH>2025-02-07T21:43:49.698048</EPOCH><MEAN_MOTION>13.19717081</MEAN_MOTION><ECCENTRICITY>.0001733</ECCENTRICITY><INCLINATION>87.9120</INCLINATION><RA_OF_ASC_NODE>43.2005</RA_OF_ASC_NODE><ARG_OF_PERICENTER>71.1862</ARG_OF_PERICENTER><MEAN_ANOMALY>288.9459</MEAN_ANOMALY></meanElements><tleParameters><EPHEMERIS_TYPE>0</EPHEMERIS_TYPE><CLASSIFICATION_TYPE>U</CLASSIFICATION_TYPE><NORAD_CAT_ID>54147</NORAD_CAT_ID><ELEMENT_SET_NO>999</ELEMENT_SET_NO><REV_AT_EPOCH>11251</REV_AT_EPOCH><BSTAR>.13214E-1</BSTAR><MEAN_MOTION_DOT>.5306E-4</MEAN_MOTION_DOT><MEAN_MOTION_DDOT>0</MEAN_MOTION_DDOT></tleParameters></data></segment></body></omm>
<omm id="CCSDS_OMM_VERS" version="2.0">
<header><CREATION_DATE/><ORIGINATOR/></header><body><segment><metadata><OBJECT_NAME>ONEWEB-0536</OBJECT_NAME><OBJECT_ID>2022-138AM</OBJECT_ID><CENTER_NAME>EARTH</CENTER_NAME><REF_FRAME>TEME</REF_FRAME><TIME_SYSTEM>UTC</TIME_SYSTEM><MEAN_ELEMENT_THEORY>SGP4</MEAN_ELEMENT_THEORY></metadata><data><meanElements><EPOCH>2025-02-07T21:45:49.072608</EPOCH><MEAN_MOTION>13.20770576</MEAN_MOTION><ECCENTRICITY>.0002545</ECCENTRICITY><INCLINATION>87.9282</INCLINATION><RA_OF_ASC_NODE>12.8269</RA_OF_ASC_NODE><ARG_OF_PERICENTER>62.9728</ARG_OF_PERICENTER><MEAN_ANOMALY>297.1665</MEAN_ANOMALY></meanElements><tleParameters><EPHEMERIS_TYPE>0</EPHEMERIS_TYPE><CLASSIFICATION_TYPE>U</CLASSIFICATION_TYPE><NORAD_CAT_ID>54148</NORAD_CAT_ID><ELEMENT_SET_NO>999</ELEMENT_SET_NO><REV_AT_EPOCH>11405</REV_AT_EPOCH><BSTAR>.76332E-5</BSTAR><MEAN_MOTION_DOT>.16E-6</MEAN_MOTION_DOT><MEAN_MOTION_DDOT>0</MEAN_MOTION_DDOT></tleParameters></data></segment></body></omm>
<omm id="CCSDS_OMM_VERS" version="2.0">
<header><CREATION_DATE/><ORIGINATOR/></header><body><segment><metadata><OBJECT_NAME>ONEWEB-0527</OBJECT_NAME><OBJECT_ID>2022-166A</OBJECT_ID><CENTER_NAME>EARTH</CENTER_NAME><REF_FRAME>TEME</REF_FRAME><TIME_SYSTEM>UTC</TIME_SYSTEM><MEAN_ELEMENT_THEORY>SGP4</MEAN_ELEMENT_THEORY></metadata><data><meanElements><EPOCH>2025-02-07T20:58:20.647776</EPOCH><MEAN_MOTION>13.21826406</MEAN_MOTION><ECCENTRICITY>.0001941</ECCENTRICITY><INCLINATION>87.9346</INCLINATION><RA_OF_ASC_NODE>342.5078</RA_OF_ASC_NODE><ARG_OF_PERICENTER>81.8619</ARG_OF_PERICENTER><MEAN_ANOMALY>278.2735</MEAN_ANOMALY></meanElements><tleParameters><EPHEMERIS_TYPE>0</EPHEMERIS_TYPE><CLASSIFICATION_TYPE>U</CLASSIFICATION_TYPE><NORAD_CAT_ID>54642</NORAD_CAT_ID><ELEMENT_SET_NO>999</ELEMENT_SET_NO><REV_AT_EPOCH>10623</REV_AT_EPOCH><BSTAR>.70052E-4</BSTAR><MEAN_MOTION_DOT>.42E-6</MEAN_MOTION_DOT><MEAN_MOTION_DDOT>0</MEAN_MOTION_DDOT></tleParameters></data></segment></body></omm>
<omm id="CCSDS_OMM_VERS" version="2.0">
<header><CREATION_DATE/><ORIGINATOR/></header><body><segment><metadata><OBJECT_NAME>ONEWEB-0528</OBJECT_NAME><OBJECT_ID>2022-166B</OBJECT_ID><CENTER_NAME>EARTH</CENTER_NAME><REF_FRAME>TEME</REF_FRAME><TIME_SYSTEM>UTC</TIME_SYSTEM><MEAN_ELEMENT_THEORY>SGP4</MEAN_ELEMENT_THEORY></metadata><data><meanElements><EPOCH>2025-02-07T21:07:25.959648</EPOCH><MEAN_MOTION>13.21826426</MEAN_MOTION><ECCENTRICITY>.0001929</ECCENTRICITY><INCLINATION>87.9347</INCLINATION><RA_OF_ASC_NODE>342.5015</RA_OF_ASC_NODE><ARG_OF_PERICENTER>82.9910</ARG_OF_PERICENTER><MEAN_ANOMALY>277.1444</MEAN_ANOMALY></meanElements><tleParameters><EPHEMERIS_TYPE>0</EPHEMERIS_TYPE><CLASSIFICATION_TYPE>U</CLASSIFICATION_TYPE><NORAD_CAT_ID>54643</NORAD_CAT_ID><ELEMENT_SET_NO>999</ELEMENT_SET_NO><REV_AT_EPOCH>10624</REV_AT_EPOCH><BSTAR>.24434E-3</BSTAR><MEAN_MOTION_DOT>.114E-5</MEAN_MOTION_DOT><MEAN_MOTION_DDOT>0</MEAN_MOTION_DDOT></tleParameters></data></segment></body></omm>
<omm id="CCSDS_OMM_VERS" version="2.0">
<header><CREATION_DATE/><ORIGINATOR/></header><body><segment><metadata><OBJECT_NAME>ONEWEB-0539</OBJECT_NAME><OBJECT_ID>2022-166C</OBJECT_ID><CENTER_NAME>EARTH</CENTER_NAME><REF_FRAME>TEME</REF_FRAME><TIME_SYSTEM>UTC</TIME_SYSTEM><MEAN_ELEMENT_THEORY>SGP4</MEAN_ELEMENT_THEORY></metadata><data><meanElements><EPOCH>2025-02-07T20:10:36.886944</EPOCH><MEAN_MOTION>13.21822751</MEAN_MOTION><ECCENTRICITY>.00017</ECCENTRICITY><INCLINATION>87.9329</INCLINATION><RA_OF_ASC_NODE>342.5148</RA_OF_ASC_NODE><ARG_OF_PERICENTER>81.9114</ARG_OF_PERICENTER><MEAN_ANOMALY>278.2213</MEAN_ANOMALY></meanElements><tleParameters><EPHEMERIS_TYPE>0</EPHEMERIS_TYPE><CLASSIFICATION_TYPE>U</CLASSIFICATION_TYPE><NORAD_CAT_ID>54644</NORAD_CAT_ID><ELEMENT_SET_NO>999</ELEMENT_SET_NO><REV_AT_EPOCH>10623</REV_AT_EPOCH><BSTAR>.1139E-3</BSTAR><MEAN_MOTION_DOT>.6E-6</MEAN_MOTION_DOT><MEAN_MOTION_DDOT>0</MEAN_MOTION_DDOT></tleParameters></data></segment></body></omm>
<omm id="CCSDS_OMM_VERS" version="2.0">
<header><CREATION_DATE/><ORIGINATOR/></header><body><segment><metadata><OBJECT_NAME>ONEWEB-0540</OBJECT_NAME><OBJECT_ID>2022-166D</OBJECT_ID><CENTER_NAME>EARTH</CENTER_NAME><REF_FRAME>TEME</REF_FRAME><TIME_SYSTEM>UTC</TIME_SYSTEM><MEAN_ELEMENT_THEORY>SGP4</MEAN_ELEMENT_THEORY></metadata><data><meanElements><EPOCH>2025-02-07T20:19:43.733280</EPOCH><MEAN_MOTION>13.21830143</MEAN_MOTION><ECCENTRICITY>.0001599</ECCENTRICITY><INCLINATION>87.9345</INCLINATION><RA_OF_ASC_NODE>342.5237</RA_OF_ASC_NODE><ARG_OF_PERICENTER>83.3215</ARG_OF_PERICENTER><MEAN_ANOMALY>276.8101</MEAN_ANOMALY></meanElements><tleParameters><EPHEMERIS_TYPE>0</EPHEMERIS_TYPE><CLASSIFICATION_TYPE>U</CLASSIFICATION_TYPE><NORAD_CAT_ID>54645</NORAD_CAT_ID><ELEMENT_SET_NO>999</ELEMENT_SET_NO><REV_AT_EPOCH>10622</REV_AT_EPOCH><BSTAR>.77801E-4</BSTAR><MEAN_MOTION_DOT>.45E-6</MEAN_MOTION_DOT><MEAN_MOTION_DDOT>0</MEAN_MOTION_DDOT></tleParameters></data></segment></body></omm>
<omm id="CCSDS_OMM_VERS" version="2.0">
<header><CREATION_DATE/><ORIGINATOR/></header><body><segment><metadata><OBJECT_NAME>ONEWEB-0542</OBJECT_NAME><OBJECT_ID>2022-166E</OBJECT_ID><CENTER_NAME>EARTH</CENTER_NAME><REF_FRAME>TEME</REF_FRAME><TIME_SYSTEM>UTC</TIME_SYSTEM><MEAN_ELEMENT_THEORY>SGP4</MEAN_ELEMENT_THEORY></metadata><data><meanElements><EPOCH>2025-02-07T22:13:17.053248</EPOCH><MEAN_MOTION>13.21826175</MEAN_MOTION><ECCENTRICITY>.0001455</ECCENTRICITY><INCLINATION>87.9327</INCLINATION><RA_OF_ASC_NODE>342.4963</RA_OF_ASC_NODE><ARG_OF_PERICENTER>74.1057</ARG_OF_PERICENTER><MEAN_ANOMALY>286.0237</MEAN_ANOMALY></meanElements><tleParameters><EPHEMERIS_TYPE>0</EPHEMERIS_TYPE><CLASSIFICATION_TYPE>U</CLASSIFICATION_TYPE><NORAD_CAT_ID>54646</NORAD_CAT_ID><ELEMENT_SET_NO>999</ELEMENT_SET_NO><REV_AT_EPOCH>10624</REV_AT_EPOCH><BSTAR>.37013E-5</BSTAR><MEAN_MOTION_DOT>.15E-6</MEAN_MOTION_DOT><MEAN_MOTION_DDOT>0</MEAN_MOTION_DDOT></tleParameters></data></segment></body></omm>

</ndm>
